ONEWEB-0063             
1 45448U 20020AA  23236.83643969 -.00000381  00000+0 -11109-2 0  9990
2 45448  87.8900 225.1213 0001785  86.4509 273.6823 13.11415989168040
ONEWEB-0019             
1 45449U 20020AB  23236.42956136  .00000552  00000+0  15225-2 0  9990
2 45449  87.8897 225.2034 0002235  84.3941 275.7442 13.11417077167832
ONEWEB-0094             
1 45450U 20020AC  23236.43257420  .00000063  00000+0  12963-3 0  9997
2 45450  87.9129 210.1098 0002013  88.1279 272.0083 13.17648556170969
ONEWEB-0087             
1 45451U 20020AD  23236.84491656 -.00000490  00000+0 -14180-2 0  9992
2 45451  87.8899 225.1109 0001834  97.3421 262.7916 13.11418278167937
ONEWEB-0082             
1 45452U 20020AE  23236.84703311 -.00000692  00000+0 -19889-2 0  9992
2 45452  87.8904 225.0954 0002131  91.9348 268.2024 13.11417398168025
ONEWEB-0050             
1 45453U 20020AF  23236.90688249  .00075765  00000+0  61164-2 0  9996
2 45453  87.8692 104.2485 0027698  72.4250 288.0006 14.99196650187201
ONEWEB-0034             
1 45454U 20020AG  23236.48465541  .00000246  00000+0  65854-3 0  9991
2 45454  87.8902 225.1855 0001937  89.6230 270.5120 13.11418567167899
ONEWEB-0060             
1 45455U 20020AH  23236.49207339  .00000517  00000+0  14234-2 0  9998
2 45455  87.8897 225.1862 0001954  88.3733 271.7619 13.11417446167851
